OPS 6582 (TRANSIT 5B-5) 
1 00965U 64083D   22046.81445237  .00000011  00000+0  21466-5 0  9994
2 00965  90.0254 195.0624 0039747 222.6272 254.9746 13.56769030829592
OSCAR 7 (AO-7)          
1 07530U 74089B   22046.57576917 -.00000045  00000+0  27292-5 0  9990
2 07530 101.8907  26.1268 0011971 276.0837 198.6944 12.53652938162194
UOSAT 2 (UO-11)         
1 14781U 84021B   22046.84436945  .00000535  00000+0  71218-4 0  9998
2 14781  97.6088  39.9011 0008640  11.9765 348.1654 14.83449457 43019
NOAA 9                  
1 15427U 84123A   22046.85952654  .00000035  00000+0  40781-4 0  9996
2 15427  99.0298  17.4362 0015300 146.9641 271.5043 14.16167851919631
LUSAT (LO-19)           
1 20442U 90005G   22046.47223439  .00000046  00000+0  33569-4 0  9993
2 20442  98.7775   9.5827 0012009 162.0349 198.1261 14.33022965675635
ITAMSAT (IO-26)         
1 22826U 93061D   22046.55354245  .00000057  00000+0  39754-4 0  9999
2 22826  98.8957  74.8138 0009576  39.4504 320.7373 14.30487301480986
RADIO ROSTO (RS-15)     
1 23439U 94085A   22046.53666602 -.00000037  00000+0  15882-3 0  9992
2 23439  64.8170 342.8078 0167212 293.3946  64.9468 11.27571374117741
JAS-2 (FO-29)           
1 24278U 96046B   22046.57440904 -.00000004  00000+0  34565-4 0  9996
2 24278  98.5336  86.9399 0349486 239.4000 117.2238 13.53110473259126
NOAA 15                 
1 25338U 98030A   22046.76146565  .00000085  00000+0  53858-4 0  9990
2 25338  98.6591  77.8024 0009384 294.3588  65.6612 14.26090378235929
TECHSAT 1B (GO-32)      
1 25397U 98043D   22046.84962843  .00000017  00000+0  27069-4 0  9993
2 25397  98.8031 357.0985 0002328  93.9219 266.2225 14.23732391226349
ISS (ZARYA)             
1 25544U 98067A   22046.91854220  .00008726  00000+0  16182-3 0  9998
2 25544  51.6420 217.1411 0005870 133.8744  20.3945 15.49793047326370
ORSTED                  
1 25635U 99008B   22046.55727816  .00000190  00000+0  52685-4 0  9991
2 25635  96.4790 299.8681 0137478 209.7590 149.5739 14.48386708212634
PHASE 3D (AO-40)        
1 26609U 00072B   22046.75705661 -.00000012  00000+0  00000+0 0  9995
2 26609   8.0374 291.1216 7978125 336.9868   1.9648  1.25589118 97768
PCSAT (NO-44)           
1 26931U 01043C   22046.53338036  .00000050  00000+0  50790-4 0  9993
2 26931  67.0527  13.0798 0007346 279.1778  80.8492 14.30662780 63961
SAUDISAT 1C (SO-50)     
1 27607U 02058C   22046.43309840  .00000526  00000+0  93927-4 0  9998
2 27607  64.5561 315.2306 0069509 318.9159  40.6720 14.75919426 30365
CUTE-1 (CO-55)          
1 27844U 03031E   22046.59304816  .00000170  00000+0  95826-4 0  9993
2 27844  98.6810  56.1091 0010969  94.8382 265.4049 14.22382226966542
CUBESAT XI-IV (CO-57)   
1 27848U 03031J   22046.72961320  .00000136  00000+0  81095-4 0  9996
2 27848  98.6860  56.7848 0010820 107.0252 253.2112 14.21948989966411
MOZHAYETS 4 (RS-22)     
1 27939U 03042A   22046.80514749  .00000681  00000+0  12990-3 0  9999
2 27939  98.1692 187.7174 0011995 227.7849 132.2342 14.67140491983202
INMARSAT 4-F1           
1 28628U 05009A   22046.75657860 -.00000258  00000+0  00000+0 0  9992
2 28628   3.5237  33.7609 0003077 297.3488 230.4737  1.00272056 61796
NOAA 18                 
1 28654U 05018A   22046.81206676  .00000130  00000+0  94198-4 0  9997
2 28654  98.9638 117.2810 0013472 317.7115  42.3017 14.12688436862895
CUBESAT XI-V            
1 28895U 05043F   22046.60591117  .00000633  00000+0  12935-3 0  9992
2 28895  98.0863 180.0281 0017201 161.1102 199.0742 14.64095925869584
METOP-A                 
1 29499U 06044A   22046.62279512  .00000797  00000+0  11448-3 0  9998
2 29499  98.4685  87.2752 0199397  30.1579  80.5421 14.66936573792816
CARTOSAT-2 (IRS-P7)     
1 29710U 07001B   22046.53101494  .00013232  00000+0  35974-3 0  9999
2 29710  97.8639 145.4543 0164450 123.3930 238.3163 15.25090828817631
FALCONSAT-3             
1 30776U 07006E   22046.19831610  .00018773  00000+0  38092-3 0  9999
2 30776  35.4345 335.9692 0003962 298.1734  61.8595 15.45465828830610
CAPE-1                  
1 31130U 07012P   22046.40768518  .00000718  00000+0  16170-3 0  9994
2 31130  98.2588 347.9311 0094678 312.0752  47.2420 14.56873366787327
CARTOSAT-2A             
1 32783U 08021A   22046.88356894  .00000693  00000+0  10165-3 0  9992
2 32783  97.9840 108.2398 0012367 194.5471 165.5364 14.78632936745053
CUTE-1.7+APD II (CO-65) 
1 32785U 08021C   22046.82332846  .00001330  00000+0  14666-3 0  9998
2 32785  97.6426  21.6805 0011289 278.3144  81.6793 14.89077460748451
COMPASS-1               
1 32787U 08021E   22046.72324828  .00002060  00000+0  19420-3 0  9994
2 32787  97.5520  33.0608 0011684 186.1179 173.9901 14.94799930749915
AAUSAT-II               
1 32788U 08021F   22046.50837080  .00002928  00000+0  26337-3 0  9998
2 32788  97.5236  36.3147 0011939 164.6546 195.5040 14.96340162750193
DELFI-C3 (DO-64)        
1 32789U 08021G   22046.59657619  .00005827  00000+0  35336-3 0  9996
2 32789  97.3535  77.4926 0011939  33.9371 326.2621 15.10860033753517
SEEDS II (CO-66)        
1 32791U 08021J   22046.40578166  .00001852  00000+0  18831-3 0  9993
2 32791  97.5983  26.9148 0011661 232.8823 127.1332 14.91916376748991
YUBILEINY (RS-30)       
1 32953U 08025A   22046.68887409  .00000021  00000+0  80971-4 0  9992
2 32953  82.5007 259.6475 0019358 164.3210 195.8476 12.43107138623200
FENGYUN 3A              
1 32958U 08026A   22046.80909254  .00000042  00000+0  40490-4 0  9990
2 32958  98.4859  14.5210 0009180  21.9503 338.2065 14.18688898711088
PRISM (HITOMI)          
1 33493U 09002B   22046.46806412  .00002856  00000+0  24363-3 0  9999
2 33493  98.2179  26.2757 0014650 198.6521 161.4165 14.98533434710700
STARS (KUKAI)           
1 33498U 09002G   22046.60596129  .00000927  00000+0  13091-3 0  9994
2 33498  98.1851 296.4664 0009578 287.2841  72.7321 14.79625101703412
KKS-1 (KISEKI)          
1 33499U 09002H   22046.61718816  .00000504  00000+0  81367-4 0  9998
2 33499  98.2366 286.5260 0008899 353.2267   6.8820 14.75815973702277
NOAA 19                 
1 33591U 09005A   22046.79973074  .00000097  00000+0  77801-4 0  9997
2 33591  99.1638  78.2910 0014178 166.2101 193.9460 14.12530246671277
SWISSCUBE               
1 35932U 09051B   22046.52878171  .00000448  00000+0  11129-3 0  9992
2 35932  98.5828 258.9634 0008595  65.2472 294.9618 14.56689451658348
BEESAT-1                
1 35933U 09051C   22046.55486358  .00000382  00000+0  96424-4 0  9997
2 35933  98.5774 260.6964 0006869  76.7886 283.4077 14.56728188658425
ITUPSAT1                
1 35935U 09051E   22046.56709005  .00000350  00000+0  90929-4 0  9996
2 35935  98.5876 260.7948 0009188  78.4046 281.8182 14.55850308658144
XIWANG-1 (HOPE-1)       
1 36122U 09072B   22046.51360799 -.00000035  00000+0  20021-4 0  9993
2 36122 100.1670  22.4356 0006837 261.7623  98.2715 13.16365855584769
CARTOSAT-2B             
1 36795U 10035A   22046.71881224  .00000376  00000+0  58456-4 0  9993
2 36795  97.9787 108.3020 0012337 278.7697  81.2115 14.78651920626077
TISAT 1                 
1 36799U 10035E   22046.50566782  .00002005  00000+0  20237-3 0  9999
2 36799  98.1931 252.1070 0012835 132.3189 227.9118 14.92238604629578
FENGYUN 3B              
1 37214U 10059A   22046.80652221  .00000047  00000+0  48832-4 0  9991
2 37214  99.0919  50.6188 0021846 341.1502  18.8845 14.14244198583762
JUGNU                   
1 37839U 11058B   22046.70748714  .00000377  00000+0  58492-4 0  9995
2 37839  19.9598 193.8894 0018847 254.6688 135.9337 14.12749513535014
SRMSAT                  
1 37841U 11058D   22046.82128431  .00000346  00000+0  44986-4 0  9998
2 37841  19.9715 270.1266 0011900  87.8734 358.5235 14.10725865534269
M-CUBED & EXP-1 PRIME   
1 37855U 11061F   22046.38218781  .00005937  00000+0  27839-3 0  9994
2 37855 101.7146 101.3598 0160975  67.3206 294.4938 15.09647962562808
HORYU-2                 
1 38340U 12025D   22046.49287080  .00000887  00000+0  13567-3 0  9997
2 38340  98.2060 123.0540 0010252 256.3221 103.6846 14.76289933514247
METOP-B                 
1 38771U 12049A   22046.79439725  .00000046  00000+0  41083-4 0  9991
2 38771  98.6823 108.3794 0001764  66.5587  45.2158 14.21496140488446
SARAL                   
1 39086U 13009A   22046.53671108  .00000036  00000+0  29605-4 0  9998
2 39086  98.5455 233.9724 0000190 151.7893 208.3301 14.32054083469037
AAUSAT 3                
1 39087U 13009B   22046.83522771  .00000361  00000+0  13892-3 0  9994
2 39087  98.4058 249.3961 0011717 271.1496  88.8334 14.36052889470128
STRAND-1                
1 39090U 13009E   22046.50964872  .00000044  00000+0  30161-4 0  9991
2 39090  98.4108 247.7660 0007963 275.6285  84.3993 14.35243937469900
BRITE-AUSTRIA           
1 39091U 13009F   22046.56248991  .00000100  00000+0  50075-4 0  9994
2 39091  98.4118 246.9728 0009370 282.9184  77.0955 14.35229347469941
UNIBRITE                
1 39092U 13009G   22046.50348867  .00000083  00000+0  43939-4 0  9993
2 39092  98.4150 246.6567 0008255 277.8566  82.1682 14.35100959469899
SOMP                    
1 39134U 13015E   22046.52318661  .00007917  00000+0  32021-3 0  9990
2 39134  64.8631 100.9157 0030353 299.7701  60.0410 15.24960711488245
BEESAT-3                
1 39135U 13015F   22046.60774650  .00006012  00000+0  27380-3 0  9991
2 39135  64.8679 134.0830 0031038 309.1036  50.7332 15.21202192487564
BEESAT-2                
1 39136U 13015G   22046.58533516  .00005826  00000+0  27444-3 0  9996
2 39136  64.8764 141.6330 0010488 272.5308  87.4619 15.20432019487376
NEE-01 PEGASO           
1 39151U 13018B   22046.54032435  .00000839  00000+0  11613-3 0  9996
2 39151  97.9840 152.7323 0015671 292.1301  67.8247 14.80589535475647
CUBEBUG-1 (CAPITAN BETO)
1 39153U 13018D   22046.79733369  .00000996  00000+0  13467-3 0  9992
2 39153  98.0028 156.9774 0015489 285.6784  74.2719 14.81219370475828
